{
  "norad_id": 64545,
  "name": "ION SCV-020",
  "history": [
    {
      "epoch": "2026-03-28T20:39:51.403104",
      "apogee_km": 506.4078600449411,
      "perigee_km": 501.51812799918935,
      "latitude_deg": 24.235704117843717,
      "longitude_deg": -2.8428854399826378,
      "semi_major_axis_km": 6882.099994022065,
      "eccentricity": 0.00035525,
      "inclination_deg": 97.4599,
      "raan_deg": 203.6489,
      "arg_perigee_deg": 99.8729,
      "mean_anomaly_deg": 260.2907,
      "mean_motion_rev_day": 15.20622087
    },
    {
      "epoch": "2026-03-28T22:14:36.914496",
      "apogee_km": 506.4046454988411,
      "perigee_km": 501.5169796323571,
      "latitude_deg": 82.78510687758464,
      "longitude_deg": 3.4743494398426265,
      "semi_major_axis_km": 6882.097812565599,
      "eccentricity": 0.0003551,
      "inclination_deg": 97.4598,
      "raan_deg": 203.714,
      "arg_perigee_deg": 99.6866,
      "mean_anomaly_deg": 260.477,
      "mean_motion_rev_day": 15.2062281
    }
  ]
}